[{"OBJECT_NAME":"STARLINK-32861","OBJECT_ID":"2025-022S","EPOCH":"2026-01-30T03:38:08.910528","MEAN_MOTION":15.30166482,"ECCENTRICITY":0.0001594,"INCLINATION":53.161,"RA_OF_ASC_NODE":308.3494,"ARG_OF_PERICENTER":55.674,"MEAN_ANOMALY":304.4412,"EPHEMERIS_TYPE":0,"CLASSIFICATION_TYPE":"U","NORAD_CAT_ID":62870,"ELEMENT_SET_NO":999,"REV_AT_EPOCH":5600,"BSTAR":0.0010793047,"MEAN_MOTION_DOT":0.0003171,"MEAN_MOTION_DDOT":0},{"OBJECT_NAME":"STARLINK-32814","OBJECT_ID":"2025-022T","EPOCH":"2026-01-30T04:23:44.130624","MEAN_MOTION":15.30191434,"ECCENTRICITY":0.00013239,"INCLINATION":53.1589,"RA_OF_ASC_NODE":308.5475,"ARG_OF_PERICENTER":67.9193,"MEAN_ANOMALY":292.1948,"EPHEMERIS_TYPE":0,"CLASSIFICATION_TYPE":"U","NORAD_CAT_ID":62871,"ELEMENT_SET_NO":999,"REV_AT_EPOCH":5600,"BSTAR":0.0014739085,"MEAN_MOTION_DOT":0.00043538,"MEAN_MOTION_DDOT":0},{"OBJECT_NAME":"STARLINK-32849","OBJECT_ID":"2025-022U","EPOCH":"2026-01-30T04:55:38.964576","MEAN_MOTION":15.30191075,"ECCENTRICITY":0.00013221,"INCLINATION":53.1591,"RA_OF_ASC_NODE":308.685,"ARG_OF_PERICENTER":72.7472,"MEAN_ANOMALY":287.3673,"EPHEMERIS_TYPE":0,"CLASSIFICATION_TYPE":"U","NORAD_CAT_ID":62872,"ELEMENT_SET_NO":999,"REV_AT_EPOCH":5600,"BSTAR":0.00136135,"MEAN_MOTION_DOT":0.00040167,"MEAN_MOTION_DDOT":0},{"OBJECT_NAME":"STARLINK-32833","OBJECT_ID":"2025-022V","EPOCH":"2026-01-30T00:55:52.426272","MEAN_MOTION":15.30190591,"ECCENTRICITY":0.00013736,"INCLINATION":53.1607,"RA_OF_ASC_NODE":309.0669,"ARG_OF_PERICENTER":75.0369,"MEAN_ANOMALY":285.0784,"EPHEMERIS_TYPE":0,"CLASSIFICATION_TYPE":"U","NORAD_CAT_ID":62873,"ELEMENT_SET_NO":999,"REV_AT_EPOCH":5598,"BSTAR":0.0002350991,"MEAN_MOTION_DOT":6.608e-5,"MEAN_MOTION_DDOT":0},{"OBJECT_NAME":"STARLINK-32793","OBJECT_ID":"2025-022W","EPOCH":"2026-01-30T04:31:20.117856","MEAN_MOTION":15.30177696,"ECCENTRICITY":0.00014523,"INCLINATION":53.158,"RA_OF_ASC_NODE":308.5815,"ARG_OF_PERICENTER":56.7804,"MEAN_ANOMALY":303.3336,"EPHEMERIS_TYPE":0,"CLASSIFICATION_TYPE":"U","NORAD_CAT_ID":62874,"ELEMENT_SET_NO":999,"REV_AT_EPOCH":5600,"BSTAR":0.0013184874,"MEAN_MOTION_DOT":0.00038868,"MEAN_MOTION_DDOT":0},{"OBJECT_NAME":"STARLINK-32834","OBJECT_ID":"2025-022X","EPOCH":"2026-01-30T00:58:54.525504","MEAN_MOTION":15.30171151,"ECCENTRICITY":0.00016426,"INCLINATION":53.1602,"RA_OF_ASC_NODE":309.0832,"ARG_OF_PERICENTER":131.2475,"MEAN_ANOMALY":228.8667,"EPHEMERIS_TYPE":0,"CLASSIFICATION_TYPE":"U","NORAD_CAT_ID":62875,"ELEMENT_SET_NO":999,"REV_AT_EPOCH":5598,"BSTAR":0.00094011416,"MEAN_MOTION_DOT":0.00027563,"MEAN_MOTION_DDOT":0},{"OBJECT_NAME":"STARLINK-11371 [DTC]","OBJECT_ID":"2025-024A","EPOCH":"2026-01-30T05:22:33.061728","MEAN_MOTION":15.7084358,"ECCENTRICITY":0.0001081,"INCLINATION":43,"RA_OF_ASC_NODE":53.6129,"ARG_OF_PERICENTER":241.282,"MEAN_ANOMALY":118.7939,"EPHEMERIS_TYPE":0,"CLASSIFICATION_TYPE":"U","NORAD_CAT_ID":62879,"ELEMENT_SET_NO":999,"REV_AT_EPOCH":5741,"BSTAR":0.0024882577,"MEAN_MOTION_DOT":0.00331973,"MEAN_MOTION_DDOT":0},{"OBJECT_NAME":"STARLINK-11352 [DTC]","OBJECT_ID":"2025-024B","EPOCH":"2026-01-30T02:57:28.468224","MEAN_MOTION":15.70846271,"ECCENTRICITY":0.00012007,"INCLINATION":42.9996,"RA_OF_ASC_NODE":53.6972,"ARG_OF_PERICENTER":263.2928,"MEAN_ANOMALY":96.7803,"EPHEMERIS_TYPE":0,"CLASSIFICATION_TYPE":"U","NORAD_CAT_ID":62880,"ELEMENT_SET_NO":999,"REV_AT_EPOCH":5740,"BSTAR":0.0017661774,"MEAN_MOTION_DOT":0.00232696,"MEAN_MOTION_DDOT":0},{"OBJECT_NAME":"STARLINK-11382 [DTC]","OBJECT_ID":"2025-024C","EPOCH":"2026-01-30T06:31:10.366464","MEAN_MOTION":15.70910586,"ECCENTRICITY":0.00017594,"INCLINATION":43.0006,"RA_OF_ASC_NODE":53.1005,"ARG_OF_PERICENTER":276.4358,"MEAN_ANOMALY":83.631,"EPHEMERIS_TYPE":0,"CLASSIFICATION_TYPE":"U","NORAD_CAT_ID":62881,"ELEMENT_SET_NO":999,"REV_AT_EPOCH":5742,"BSTAR":0.0013358225,"MEAN_MOTION_DOT":0.00175134,"MEAN_MOTION_DDOT":0},{"OBJECT_NAME":"STARLINK-11432 [DTC]","OBJECT_ID":"2025-024D","EPOCH":"2026-01-30T06:46:27.782400","MEAN_MOTION":15.71427145,"ECCENTRICITY":0.00034244,"INCLINATION":42.9993,"RA_OF_ASC_NODE":53.185,"ARG_OF_PERICENTER":233.9115,"MEAN_ANOMALY":126.1436,"EPHEMERIS_TYPE":0,"CLASSIFICATION_TYPE":"U","NORAD_CAT_ID":62882,"ELEMENT_SET_NO":999,"REV_AT_EPOCH":5742,"BSTAR":0.0017908139,"MEAN_MOTION_DOT":0.00242095,"MEAN_MOTION_DDOT":0},{"OBJECT_NAME":"STARLINK-11419 [DTC]","OBJECT_ID":"2025-024E","EPOCH":"2026-01-30T01:48:51.059808","MEAN_MOTION":15.70871586,"ECCENTRICITY":0.00020538,"INCLINATION":42.9999,"RA_OF_ASC_NODE":54.206,"ARG_OF_PERICENTER":284.7506,"MEAN_ANOMALY":75.3134,"EPHEMERIS_TYPE":0,"CLASSIFICATION_TYPE":"U","NORAD_CAT_ID":62883,"ELEMENT_SET_NO":999,"REV_AT_EPOCH":5739,"BSTAR":0.0015167783,"MEAN_MOTION_DOT":0.00199177,"MEAN_MOTION_DDOT":0},{"OBJECT_NAME":"STARLINK-11437 [DTC]","OBJECT_ID":"2025-024F","EPOCH":"2026-01-30T06:38:49.023456","MEAN_MOTION":15.70893554,"ECCENTRICITY":0.00018387,"INCLINATION":42.9996,"RA_OF_ASC_NODE":53.1421,"ARG_OF_PERICENTER":272.9088,"MEAN_ANOMALY":87.1569,"EPHEMERIS_TYPE":0,"CLASSIFICATION_TYPE":"U","NORAD_CAT_ID":62884,"ELEMENT_SET_NO":999,"REV_AT_EPOCH":5742,"BSTAR":0.0012155822,"MEAN_MOTION_DOT":0.00158903,"MEAN_MOTION_DDOT":0},{"OBJECT_NAME":"STARLINK-11442 [DTC]","OBJECT_ID":"2025-024G","EPOCH":"2026-01-30T06:00:02.000160","MEAN_MOTION":15.70867963,"ECCENTRICITY":0.0001811,"INCLINATION":43,"RA_OF_ASC_NODE":52.7839,"ARG_OF_PERICENTER":257.1094,"MEAN_ANOMALY":160.8648,"EPHEMERIS_TYPE":0,"CLASSIFICATION_TYPE":"U","NORAD_CAT_ID":62885,"ELEMENT_SET_NO":999,"REV_AT_EPOCH":593,"BSTAR":-0.00012651089,"MEAN_MOTION_DOT":-0.00016669,"MEAN_MOTION_DDOT":0},{"OBJECT_NAME":"STARLINK-11365 [DTC]","OBJECT_ID":"2025-024H","EPOCH":"2026-01-30T05:52:56.373888","MEAN_MOTION":15.70920947,"ECCENTRICITY":0.0001299,"INCLINATION":43.0004,"RA_OF_ASC_NODE":52.8847,"ARG_OF_PERICENTER":248.0428,"MEAN_ANOMALY":112.0302,"EPHEMERIS_TYPE":0,"CLASSIFICATION_TYPE":"U","NORAD_CAT_ID":62886,"ELEMENT_SET_NO":999,"REV_AT_EPOCH":5742,"BSTAR":0.0011495962,"MEAN_MOTION_DOT":0.00150266,"MEAN_MOTION_DDOT":0},{"OBJECT_NAME":"STARLINK-11436 [DTC]","OBJECT_ID":"2025-024J","EPOCH":"2026-01-30T06:15:53.772192","MEAN_MOTION":15.70712973,"ECCENTRICITY":0.00013699,"INCLINATION":43.0007,"RA_OF_ASC_NODE":53.0131,"ARG_OF_PERICENTER":289.6352,"MEAN_ANOMALY":70.4367,"EPHEMERIS_TYPE":0,"CLASSIFICATION_TYPE":"U","NORAD_CAT_ID":62887,"ELEMENT_SET_NO":999,"REV_AT_EPOCH":5742,"BSTAR":0.0064325182,"MEAN_MOTION_DOT":0.00900827,"MEAN_MOTION_DDOT":0},{"OBJECT_NAME":"STARLINK-11438 [DTC]","OBJECT_ID":"2025-024K","EPOCH":"2026-01-30T04:22:41.203776","MEAN_MOTION":15.70984945,"ECCENTRICITY":9.456e-5,"INCLINATION":42.9957,"RA_OF_ASC_NODE":53.2735,"ARG_OF_PERICENTER":198.3724,"MEAN_ANOMALY":161.7109,"EPHEMERIS_TYPE":0,"CLASSIFICATION_TYPE":"U","NORAD_CAT_ID":62888,"ELEMENT_SET_NO":999,"REV_AT_EPOCH":5741,"BSTAR":0.0014426089,"MEAN_MOTION_DOT":0.00190107,"MEAN_MOTION_DDOT":0}]
