STARLINK-32861          
1 62870U 25022S   26030.15149202  .00031710  00000+0  10793-2 0  9992
2 62870  53.1610 308.3494 0001594  55.6740 304.4412 15.30166482 56003
STARLINK-32814          
1 62871U 25022T   26030.18314966  .00043538  00000+0  14739-2 0  9992
2 62871  53.1589 308.5475 0001323  67.9193 292.1948 15.30191434 56000
STARLINK-32849          
1 62872U 25022U   26030.20531209  .00040167  00000+0  13614-2 0  9993
2 62872  53.1591 308.6850 0001322  72.7472 287.3673 15.30191075 56007
STARLINK-32833          
1 62873U 25022V   26030.03880123  .00006608  00000+0  23510-3 0  9996
2 62873  53.1607 309.0669 0001373  75.0369 285.0784 15.30190591 55982
STARLINK-32793          
1 62874U 25022W   26030.18842729  .00038868  00000+0  13185-2 0  9992
2 62874  53.1580 308.5815 0001452  56.7804 303.3336 15.30177696 56000
STARLINK-32834          
1 62875U 25022X   26030.04090886  .00027563  00000+0  94011-3 0  9995
2 62875  53.1602 309.0832 0001642 131.2475 228.8667 15.30171151 55989
STARLINK-11371 [DTC]    
1 62879U 25024A   26030.22399377  .00331973  00000+0  24883-2 0  9990
2 62879  43.0000  53.6129 0001081 241.2820 118.7939 15.70843580 57412
STARLINK-11352 [DTC]    
1 62880U 25024B   26030.12324616  .00232696  00000+0  17662-2 0  9994
2 62880  42.9996  53.6972 0001200 263.2928  96.7803 15.70846271 57402
STARLINK-11382 [DTC]    
1 62881U 25024C   26030.27164776  .00175134  00000+0  13358-2 0  9991
2 62881  43.0006  53.1005 0001759 276.4358  83.6310 15.70910586 57422
STARLINK-11432 [DTC]    
1 62882U 25024D   26030.28226600  .00242095  00000+0  17908-2 0  9994
2 62882  42.9993  53.1850 0003424 233.9115 126.1436 15.71427145 57421
STARLINK-11419 [DTC]    
1 62883U 25024E   26030.07559097  .00199177  00000+0  15168-2 0  9999
2 62883  42.9999  54.2060 0002053 284.7506  75.3134 15.70871586 57395
STARLINK-11437 [DTC]    
1 62884U 25024F   26030.27695629  .00158903  00000+0  12156-2 0  9990
2 62884  42.9996  53.1421 0001838 272.9088  87.1569 15.70893554 57422
STARLINK-11442 [DTC]    
1 62885U 25024G   26030.25002315 -.00016669  00000+0 -12651-3 0  9998
2 62885  43.0000  52.7839 0001811 257.1094 160.8648 15.70867963  5933
STARLINK-11365 [DTC]    
1 62886U 25024H   26030.24509692  .00150266  00000+0  11496-2 0  9993
2 62886  43.0004  52.8847 0001299 248.0428 112.0302 15.70920947 57427
STARLINK-11436 [DTC]    
1 62887U 25024J   26030.26103903  .00900827  00000+0  64325-2 0  9996
2 62887  43.0007  53.0131 0001369 289.6352  70.4367 15.70712973 57421
STARLINK-11438 [DTC]    
1 62888U 25024K   26030.18242134  .00190107  00000+0  14426-2 0  9997
2 62888  42.9957  53.2735 0000945 198.3724 161.7109 15.70984945 57411
